{"type":"FeatureCollection","features":[{"type":"Feature","properties":{"barangay_name":"Lingga","flood_risk_level":"HIGH"},"geometry":{"type":"MultiLineString","coordinates":[[[121.1795832,14.2168349],[121.1796126,14.2168504]],[[121.1795832,14.2168349],[121.1795448,14.2164936]],[[121.1795448,14.2164936],[121.1795113,14.2163675],[121.1786114,14.216322],[121.1787913,14.2146461],[121.1789867,14.2146593],[121.1791785,14.2135582],[121.179275,14.2129238],[121.1793293,14.2128341],[121.1794018,14.2127431],[121.1800602,14.2129264],[121.1803969,14.2116894],[121.1789807,14.2114813],[121.1791443,14.2100435],[121.1793481,14.2088526]],[[121.1795164,14.2056225],[121.1791416,14.2071333],[121.178691,14.2087558],[121.1790008,14.2087935],[121.1793481,14.2088526]],[[121.1795164,14.2056225],[121.1797739,14.2057591],[121.1799134,14.2058085],[121.1801964,14.2058683]],[[121.1801964,14.2058683],[121.1803003,14.2058909]],[[121.1803003,14.2058909],[121.1804465,14.2058883],[121.1809685,14.2056953],[121.1811819,14.205644],[121.1815663,14.2055951],[121.1817374,14.2056081],[121.181891,14.205636],[121.1820285,14.2055715],[121.1822642,14.2055106],[121.1823381,14.2054704],[121.1824468,14.2054314],[121.1826372,14.2054327],[121.1827554,14.2053766],[121.1829604,14.2051045],[121.1830744,14.2050349],[121.1833064,14.2050921],[121.1836343,14.2051909]],[[121.1836343,14.2051909],[121.1835712,14.2053794],[121.1835256,14.2055796],[121.1834908,14.205798],[121.1834586,14.2060659],[121.1834344,14.2067783],[121.1834559,14.2071813],[121.1834934,14.2073243],[121.1835444,14.207444],[121.1837456,14.2078626],[121.1839038,14.2081564],[121.1839762,14.208328],[121.1840031,14.2084554],[121.1840245,14.2085984],[121.1840486,14.2091601],[121.1840808,14.2094513],[121.184113,14.2096697],[121.1841613,14.2098855],[121.1843383,14.2105381],[121.1845154,14.211092],[121.1846495,14.2114534],[121.1846958,14.2115782],[121.1847326,14.2117004],[121.1847594,14.211794],[121.1847943,14.2118889],[121.1848654,14.2120449],[121.1849405,14.2121554],[121.1850008,14.2122009],[121.185084,14.2122282],[121.1852811,14.2122113],[121.185375,14.2122035],[121.185426,14.2122126],[121.1854689,14.2122399],[121.185603,14.2123725],[121.1857049,14.2124596],[121.1857948,14.2125168],[121.1859356,14.2125799],[121.1860295,14.2126],[121.1861522,14.2126098],[121.1863708,14.2126065],[121.1864734,14.2125831],[121.1867378,14.212533],[121.1873397,14.2120098],[121.1874537,14.2119136],[121.1875167,14.2118408],[121.1875422,14.2118015],[121.1875657,14.2117641]],[[121.1875657,14.2117641],[121.187576,14.2117351],[121.1877682,14.2115367],[121.1877883,14.2115168],[121.1877742,14.2115002],[121.1880022,14.211287],[121.1878292,14.2111231],[121.187892,14.2110696],[121.188253,14.2114781],[121.1879962,14.2117225],[121.1879868,14.2117121],[121.1877548,14.2119227],[121.1877421,14.212002],[121.1877367,14.2120774],[121.1877179,14.2122386],[121.1876857,14.2126013],[121.1876991,14.2131174]],[[121.1876991,14.2131174],[121.1862904,14.2132972],[121.1860767,14.2134159]],[[121.1849827,14.2140312],[121.1855363,14.2137737],[121.1859644,14.2135511],[121.1860767,14.2134159]],[[121.1849827,14.2140312],[121.1845156,14.2142584],[121.1841987,14.2144014],[121.1838025,14.2145885],[121.1832393,14.214828],[121.1830303,14.2149256],[121.1828745,14.2149612],[121.1827005,14.2149713],[121.1826187,14.2155297],[121.1825317,14.2157535],[121.182389,14.2159949],[121.1822569,14.2161778],[121.1821584,14.2162558],[121.1820316,14.2163078],[121.181713,14.2163775],[121.1806191,14.2165886],[121.1804585,14.2166308],[121.1800597,14.216748],[121.1798372,14.2168008],[121.1796126,14.2168504]]]}},{"type":"Feature","properties":{"barangay_name":"Palingon","flood_risk_level":"HIGH"},"geometry":{"type":"MultiLineString","coordinates":[[[121.1795956,14.2168887],[121.1796126,14.2168504]],[[121.1849827,14.2140312],[121.1845156,14.2142584],[121.1841987,14.2144014],[121.1838025,14.2145885],[121.1832393,14.214828],[121.1830303,14.2149256],[121.1828745,14.2149612],[121.1827005,14.2149713],[121.1826187,14.2155297],[121.1825317,14.2157535],[121.182389,14.2159949],[121.1822569,14.2161778],[121.1821584,14.2162558],[121.1820316,14.2163078],[121.181713,14.2163775],[121.1806191,14.2165886],[121.1804585,14.2166308],[121.1800597,14.216748],[121.1798372,14.2168008],[121.1796126,14.2168504]],[[121.1849827,14.2140312],[121.1855363,14.2137737],[121.1859644,14.2135511],[121.1860767,14.2134159]],[[121.1876991,14.2131174],[121.1862904,14.2132972],[121.1860767,14.2134159]],[[121.1876991,14.2131174],[121.1877085,14.2132241],[121.1877179,14.2132943],[121.1877447,14.213332],[121.187789,14.2133671],[121.1880103,14.2134815],[121.1880881,14.2135244],[121.1881444,14.2135621],[121.1881873,14.2136089],[121.1882409,14.2137025],[121.188316,14.2138429],[121.1884019,14.2139547],[121.188485,14.2140353],[121.1887023,14.2141523],[121.1889008,14.2142823],[121.1889839,14.2143525],[121.1890483,14.2144383],[121.1891341,14.2146047],[121.1891663,14.2146931],[121.1891877,14.2147919],[121.1892293,14.2151156],[121.189234,14.2151462],[121.1892427,14.2151702],[121.1892535,14.2151845],[121.189287,14.2152131],[121.1895861,14.2153678],[121.1896156,14.2153925],[121.189629,14.2154276],[121.1896317,14.2154887],[121.1896223,14.2155537],[121.1895499,14.2157747],[121.1895069,14.2158761],[121.1893943,14.2160997],[121.1892548,14.216313]],[[121.1856957,14.2160739],[121.1863154,14.2159692],[121.186548,14.2159444],[121.1867785,14.2159291],[121.187342,14.2158929],[121.1874858,14.2158986],[121.1879654,14.2159552],[121.1889391,14.2161776],[121.1892548,14.216313]],[[121.1855973,14.2160914],[121.1856957,14.2160739]],[[121.1833717,14.2167742],[121.1835852,14.2167093],[121.1836967,14.2166769],[121.1837971,14.216631],[121.183864,14.2165797],[121.1839448,14.2165202],[121.1840368,14.2164635],[121.1843445,14.2163182],[121.1845613,14.2162495],[121.1847347,14.2162113],[121.1849239,14.2161731],[121.1855973,14.2160914]],[[121.1832762,14.2167827],[121.1833717,14.2167742]],[[121.180431,14.2169149],[121.1807421,14.2168408],[121.1809875,14.21682],[121.1811216,14.2168252],[121.1812101,14.2169019],[121.1815374,14.2168785],[121.1820634,14.2168295],[121.1822783,14.2168314],[121.1823727,14.2168698],[121.1824417,14.2168774],[121.1825146,14.2168793],[121.1827077,14.216864],[121.1827866,14.2168469],[121.1830362,14.2167769],[121.1832762,14.2167827]],[[121.1797218,14.2171793],[121.180431,14.2169149]],[[121.1797218,14.2171793],[121.1796145,14.2169674],[121.1795956,14.2168887]]]}},{"type":"Feature","properties":{"barangay_name":"Sampiruhan","flood_risk_level":"HIGH"},"geometry":{"type":"MultiLineString","coordinates":[[[121.1856957,14.2160739],[121.1863154,14.2159692],[121.186548,14.2159444],[121.1867785,14.2159291],[121.187342,14.2158929],[121.1874858,14.2158986],[121.1879654,14.2159552],[121.1889391,14.2161776],[121.1892548,14.216313]],[[121.1855973,14.2160914],[121.1856957,14.2160739]],[[121.1833717,14.2167742],[121.1835852,14.2167093],[121.1836967,14.2166769],[121.1837971,14.216631],[121.183864,14.2165797],[121.1839448,14.2165202],[121.1840368,14.2164635],[121.1843445,14.2163182],[121.1845613,14.2162495],[121.1847347,14.2162113],[121.1849239,14.2161731],[121.1855973,14.2160914]],[[121.1832762,14.2167827],[121.1833717,14.2167742]],[[121.180431,14.2169149],[121.1807421,14.2168408],[121.1809875,14.21682],[121.1811216,14.2168252],[121.1812101,14.2169019],[121.1815374,14.2168785],[121.1820634,14.2168295],[121.1822783,14.2168314],[121.1823727,14.2168698],[121.1824417,14.2168774],[121.1825146,14.2168793],[121.1827077,14.216864],[121.1827866,14.2168469],[121.1830362,14.2167769],[121.1832762,14.2167827]],[[121.1797218,14.2171793],[121.180431,14.2169149]],[[121.1762816,14.2186573],[121.1764159,14.2185365],[121.1771851,14.2178449],[121.1777403,14.2175901],[121.1784753,14.2176837],[121.1785611,14.2172716],[121.178891,14.2172976],[121.1790791,14.2174765],[121.1796209,14.2172321],[121.1797218,14.2171793]],[[121.1762816,14.2186573],[121.1769291,14.2191079],[121.1775721,14.2195479],[121.1776876,14.2196269],[121.1779809,14.2198593],[121.1789575,14.2208352],[121.1804339,14.2225542],[121.1813087,14.2235465]],[[121.1813087,14.2235465],[121.182814,14.2242958],[121.1843703,14.224732]],[[121.1843703,14.224732],[121.1852932,14.2246746],[121.1860223,14.2243541],[121.1873104,14.2233494],[121.1885628,14.2231302]],[[121.1886084,14.2226726],[121.1885628,14.2228962],[121.1885628,14.2231302]],[[121.1892548,14.216313],[121.1891127,14.2166146],[121.1889946,14.2169578],[121.1888605,14.2174206],[121.1884689,14.219043],[121.1882651,14.2199946],[121.1881632,14.2205666],[121.1881095,14.2211334],[121.1881404,14.2215351],[121.1882114,14.2217002],[121.1882879,14.2218276],[121.1884073,14.2219212],[121.1887076,14.2220486],[121.1888068,14.2221162],[121.1888552,14.2221916],[121.1888686,14.2222696],[121.1888525,14.2223632],[121.188823,14.2224178],[121.1886084,14.2226726]]]}},{"type":"Feature","properties":{"barangay_name":"Parian","flood_risk_level":"HIGH"},"geometry":{"type":"MultiLineString","coordinates":[[[121.1541014,14.2083259],[121.1545856,14.2083738],[121.1550786,14.2084249],[121.1554234,14.2085353],[121.1556108,14.2085828],[121.155853,14.2086741],[121.156604,14.2087989],[121.1573443,14.2089861],[121.1577114,14.2091626],[121.1579295,14.2093364],[121.158056,14.2096791],[121.1582545,14.2099732]],[[121.1582545,14.2099732],[121.1583752,14.2101315],[121.1585024,14.2103646],[121.1585743,14.2110995],[121.1585717,14.2117282],[121.15854,14.2127984],[121.158253,14.2133034],[121.1580502,14.2138799],[121.157947,14.2142334],[121.1578297,14.2146177]],[[121.1578297,14.2146177],[121.1577564,14.2148561],[121.1574861,14.2147581],[121.157327,14.2147007],[121.1570927,14.2147495],[121.1569478,14.2147827],[121.1568415,14.2148071],[121.1567547,14.2148071],[121.156636,14.2147717],[121.1558915,14.2144706],[121.1556541,14.2144308],[121.1550238,14.2143024],[121.1547543,14.2142537],[121.154464,14.214187],[121.1541856,14.2140977],[121.1513418,14.2195539],[121.1510387,14.2201392]],[[121.1415614,14.2199233],[121.1419162,14.2199476],[121.1424013,14.2200682],[121.1432947,14.2204632],[121.1446038,14.2210973],[121.144739,14.2211166],[121.1450878,14.2211602],[121.1453376,14.2212745],[121.1454089,14.2212985],[121.1457464,14.2214145],[121.1463368,14.221383],[121.1469105,14.2212481],[121.147125,14.2211025],[121.1472377,14.2209153],[121.1472914,14.2204785],[121.1471626,14.2200416],[121.14683,14.2196256],[121.1467227,14.219532],[121.1466262,14.219584],[121.1464331,14.2195736],[121.1462399,14.2192096],[121.1461327,14.2188456],[121.1460576,14.2183672],[121.1464545,14.21818],[121.1469051,14.2177016],[121.1474094,14.2174104],[121.1481175,14.2171608],[121.1486566,14.2170308],[121.1489624,14.2169554],[121.1491474,14.2170776],[121.1492078,14.2172625],[121.1492596,14.2176538],[121.1492848,14.2183048],[121.1492102,14.2190744],[121.149291,14.2194445],[121.1495708,14.2196431],[121.150202,14.2198986],[121.1506266,14.2199931],[121.1507863,14.2200719],[121.1510387,14.2201392]],[[121.1379376,14.2129185],[121.138179,14.2129341],[121.1383399,14.2129133],[121.1385706,14.2129445],[121.1386886,14.2130381],[121.1386778,14.2131109],[121.1385491,14.2131941],[121.1384472,14.2132357],[121.1383292,14.2132357],[121.1382487,14.2131889],[121.138136,14.2131525],[121.1379644,14.2131785],[121.1378303,14.2132721],[121.137782,14.2134334],[121.1378785,14.2136206],[121.1379858,14.213735],[121.1381146,14.2137766],[121.1384043,14.2138182],[121.1386778,14.2138234],[121.1388924,14.213839],[121.1390104,14.2139222],[121.1390319,14.2140574],[121.1389729,14.2143954],[121.1389514,14.2145878],[121.1390695,14.2147022],[121.1392089,14.2147542],[121.1393162,14.214723],[121.1393967,14.2145774],[121.139445,14.2143174],[121.1394932,14.2142394],[121.1395737,14.2141822],[121.1399009,14.2141718],[121.1402818,14.2142446],[121.1404271,14.2143072],[121.1406198,14.2143902],[121.1408158,14.2145909],[121.1409156,14.2147331],[121.1410275,14.2150064],[121.1409524,14.2152118],[121.1410409,14.2156226],[121.1410945,14.2160022],[121.1411723,14.2161582],[121.1414432,14.2165301],[121.1415585,14.2168161],[121.1416379,14.2170361],[121.1417489,14.2174115],[121.1419063,14.2177826],[121.141918,14.2178101],[121.1419448,14.2181083],[121.1419555,14.2184151],[121.141934,14.2188415],[121.1418965,14.2191951],[121.1417302,14.2195071],[121.1416122,14.2197463],[121.1415614,14.2199233]],[[121.1379376,14.2129185],[121.1379305,14.2126436],[121.1378991,14.212279]],[[121.1378991,14.212279],[121.1391864,14.2122816],[121.1385416,14.2109525],[121.1419713,14.2096104],[121.1420639,14.209564]],[[121.1420639,14.209564],[121.1423215,14.2098081],[121.1423849,14.209912],[121.1424483,14.2099451],[121.1425955,14.2099242],[121.1426188,14.2099498],[121.1427309,14.2100537],[121.1428917,14.2100726],[121.1431062,14.2100773],[121.1431939,14.210049],[121.1432532,14.2100155],[121.1433109,14.2099498],[121.1434438,14.2100413]],[[121.1434438,14.2100413],[121.1435019,14.2100677],[121.1438258,14.2102391],[121.1444847,14.2088494],[121.1457133,14.2095213],[121.1483011,14.2108901],[121.148213,14.2102263],[121.1480051,14.2096502],[121.1480775,14.2095618],[121.148563,14.2099193],[121.1484249,14.2101143],[121.1488444,14.2103633],[121.1490339,14.2100566],[121.1499318,14.2107491],[121.1500012,14.2105844],[121.1500413,14.2105129],[121.1501922,14.2102444],[121.1502168,14.2102014]],[[121.1499527,14.2097321],[121.1501693,14.210117],[121.1502168,14.2102014]],[[121.1499527,14.2097321],[121.1500475,14.2097026],[121.1506324,14.2094092],[121.1507667,14.2093819],[121.1504867,14.2088243],[121.1504613,14.2087255],[121.1503942,14.2086526],[121.150307,14.2087034],[121.1501938,14.208417],[121.150481,14.208478],[121.1506692,14.2085135],[121.1507148,14.2084563],[121.1509267,14.2080702],[121.151042,14.2078518],[121.15098,14.2077307],[121.1510438,14.2076377],[121.1510728,14.2075918],[121.1512145,14.2075068]],[[121.1512145,14.2075068],[121.1514077,14.2079201],[121.1517169,14.2082659],[121.1520618,14.2084023],[121.1525807,14.2083724],[121.1531356,14.2082867],[121.1535064,14.208291],[121.1538831,14.2082895],[121.1541014,14.2083259]]]}},{"type":"Feature","properties":{"barangay_name":"Uwisan","flood_risk_level":"MEDIUM"},"geometry":{"type":"MultiLineString","coordinates":[[[121.1680281,14.2352631],[121.1682985,14.2353743],[121.168673,14.2355691],[121.1689092,14.235697]],[[121.1689092,14.235697],[121.1689836,14.2357285]],[[121.1689836,14.2357285],[121.1691617,14.2357904],[121.1692256,14.2358524],[121.1693307,14.236087],[121.1694131,14.2362358],[121.1695225,14.2363305],[121.1696001,14.2363836],[121.1696778,14.2364677]],[[121.1696778,14.2364677],[121.1695624,14.2369161],[121.1698409,14.2369933],[121.1702239,14.2372007],[121.1702694,14.2373173],[121.1703474,14.2374118],[121.1705001,14.2375472],[121.1707633,14.237563],[121.1709356,14.2376291],[121.1710103,14.237878],[121.1711793,14.2381048],[121.1714035,14.2383],[121.1717371,14.2385083],[121.1720379,14.2386358],[121.172394,14.2387678],[121.1742264,14.239598]],[[121.1802185,14.2353109],[121.1795586,14.2353628],[121.1792314,14.2354044],[121.178652,14.2355786],[121.1785206,14.2356072],[121.1783731,14.2356592],[121.178247,14.235732],[121.1779681,14.235966],[121.1775684,14.236304],[121.1772948,14.2365744],[121.1770856,14.2367616],[121.1768764,14.2369747],[121.1767477,14.2370527],[121.1766136,14.2370813],[121.1762649,14.2371229],[121.1761415,14.2371749],[121.1760744,14.2372217],[121.1759564,14.2373283],[121.1757284,14.2376065],[121.1751013,14.2382883],[121.1742264,14.239598]],[[121.1794776,14.2349237],[121.1799706,14.2351948],[121.1802185,14.2353109]],[[121.1782653,14.234437],[121.1782195,14.2345395],[121.1785423,14.2346812],[121.1788714,14.2347924],[121.1793723,14.2349616],[121.1793903,14.2349677],[121.1794776,14.2349237]],[[121.1757551,14.232239],[121.1764301,14.2325355],[121.1766622,14.2327059],[121.1768625,14.2328728],[121.1772176,14.2332375],[121.1776571,14.233643],[121.1778434,14.2339054],[121.1780157,14.2342291],[121.1782653,14.234437]],[[121.1756812,14.2322059],[121.1757551,14.232239]],[[121.1728195,14.2313741],[121.1729011,14.2313802],[121.1731084,14.2313193],[121.1733157,14.2312645],[121.1733911,14.231301],[121.1735356,14.2313376],[121.1737178,14.2312645],[121.1738434,14.2311671],[121.1739188,14.2310696],[121.1740633,14.2310331],[121.1743397,14.2311001],[121.1746098,14.2311975],[121.1747017,14.2313575],[121.1747424,14.2316022],[121.1748497,14.231835],[121.1750098,14.231905],[121.1752603,14.2320173],[121.1756812,14.2322059]],[[121.1714855,14.2307097],[121.1714864,14.2307102],[121.1725798,14.2312766],[121.1727973,14.2312832],[121.1728195,14.2313741]],[[121.1714855,14.2307097],[121.1712845,14.2314032],[121.1712843,14.231404],[121.171158,14.231892],[121.1693394,14.2315228],[121.1686206,14.2349339],[121.1681056,14.2348767],[121.1680281,14.2352631]]]}},{"type":"Feature","properties":{"barangay_name":"Looc","flood_risk_level":"HIGH"},"geometry":{"type":"MultiLineString","coordinates":[[[121.1897049,14.2248594],[121.1897296,14.2249346],[121.1897591,14.225036],[121.1897725,14.2251374],[121.1897805,14.225231],[121.1897778,14.225335],[121.1897188,14.226037],[121.1896276,14.226505],[121.1895874,14.2266636],[121.1895311,14.2268222],[121.1893594,14.2272252],[121.1891878,14.2276178],[121.189059,14.227987],[121.1889893,14.2283354],[121.1889034,14.2290061],[121.188882,14.2294273],[121.1888874,14.2298121],[121.1889142,14.2302021],[121.1888874,14.2304985],[121.1888552,14.2306337],[121.1888015,14.2307793],[121.1886942,14.2309665],[121.1885118,14.2313045]],[[121.1888498,14.2235384],[121.1889946,14.2236398],[121.1891314,14.2237724],[121.1893755,14.2240974],[121.189515,14.2243678],[121.1896169,14.2245914],[121.1897049,14.2248594]],[[121.1885628,14.2231302],[121.1886352,14.2233226],[121.1887237,14.2234448],[121.1888498,14.2235384]],[[121.1843703,14.224732],[121.1852932,14.2246746],[121.1860223,14.2243541],[121.1873104,14.2233494],[121.1885628,14.2231302]],[[121.1813087,14.2235465],[121.182814,14.2242958],[121.1843703,14.224732]],[[121.1762816,14.2186573],[121.1769291,14.2191079],[121.1775721,14.2195479],[121.1776876,14.2196269],[121.1779809,14.2198593],[121.1789575,14.2208352],[121.1804339,14.2225542],[121.1813087,14.2235465]],[[121.1729654,14.2175295],[121.1740179,14.2174783],[121.1744,14.217483],[121.1747413,14.2175983],[121.1750619,14.2177151],[121.1752558,14.2178238],[121.1757734,14.2182636],[121.1762816,14.2186573]],[[121.1729654,14.2175295],[121.1728853,14.2179561],[121.1728183,14.2183279],[121.1733574,14.2184631],[121.1733665,14.2185891],[121.1732555,14.2189809],[121.1731402,14.2195009],[121.1731143,14.2200265],[121.1730109,14.2200355],[121.1727406,14.2200589],[121.1717909,14.220079],[121.1714895,14.22098],[121.1712187,14.2218726],[121.1709628,14.2219882],[121.1705551,14.2220929],[121.1704606,14.2221524],[121.1699053,14.2222486],[121.1696699,14.2221814],[121.1692616,14.2220696],[121.1690899,14.2223712],[121.1690148,14.2227404],[121.1692738,14.2229104],[121.1692938,14.2230548],[121.1694547,14.2230472],[121.1698355,14.223172],[121.1700072,14.2233696],[121.1709192,14.2234372],[121.1709522,14.2240686],[121.1710728,14.2247948],[121.1716005,14.2256496],[121.1714771,14.225829],[121.1709809,14.2258056],[121.1707839,14.2269284]],[[121.1707839,14.2269284],[121.1706701,14.2271896],[121.1705064,14.2278734],[121.1706097,14.2278955],[121.1704059,14.2285857],[121.1702983,14.2285687],[121.1701014,14.2289991],[121.169565,14.2288951],[121.1693826,14.2296127],[121.1700049,14.2297531],[121.1699633,14.2300557],[121.1702394,14.230133],[121.1702719,14.2299412],[121.1707417,14.2302757],[121.1712567,14.2304884],[121.1714855,14.2307097]],[[121.1714855,14.2307097],[121.1714864,14.2307102],[121.1725798,14.2312766],[121.1727973,14.2312832],[121.1728195,14.2313741]],[[121.1728195,14.2313741],[121.1729011,14.2313802],[121.1731084,14.2313193],[121.1733157,14.2312645],[121.1733911,14.231301],[121.1735356,14.2313376],[121.1737178,14.2312645],[121.1738434,14.2311671],[121.1739188,14.2310696],[121.1740633,14.2310331],[121.1743397,14.2311001],[121.1746098,14.2311975],[121.1747017,14.2313575],[121.1747424,14.2316022],[121.1748497,14.231835],[121.1750098,14.231905],[121.1752603,14.2320173],[121.1756812,14.2322059]],[[121.1756812,14.2322059],[121.1757551,14.232239]],[[121.1757551,14.232239],[121.1764301,14.2325355],[121.1766622,14.2327059],[121.1768625,14.2328728],[121.1772176,14.2332375],[121.1776571,14.233643],[121.1778434,14.2339054],[121.1780157,14.2342291],[121.1782653,14.234437]],[[121.1782653,14.234437],[121.1782195,14.2345395],[121.1785423,14.2346812],[121.1788714,14.2347924],[121.1793723,14.2349616],[121.1793903,14.2349677],[121.1794776,14.2349237]],[[121.1794776,14.2349237],[121.1799706,14.2351948],[121.1802185,14.2353109]],[[121.1885118,14.2313045],[121.188426,14.2315124],[121.1883535,14.2316736],[121.1883469,14.2317243],[121.1883509,14.2317776],[121.1884743,14.2320324],[121.188489,14.2320922],[121.1884904,14.2321624],[121.1884743,14.2322365],[121.188367,14.2323418],[121.1881471,14.2324822],[121.1876053,14.2327552],[121.1873048,14.2328696],[121.1870581,14.2329372],[121.1868837,14.2329606],[121.1866987,14.2329684],[121.1862963,14.2329372],[121.1858162,14.232919],[121.1856365,14.232919],[121.1855051,14.2329424],[121.1852932,14.233036],[121.1841506,14.2339459],[121.1840057,14.2339875],[121.1838984,14.2339771],[121.1829141,14.2337015],[121.1827129,14.2336911],[121.1825225,14.2337093],[121.182324,14.2337561],[121.1821228,14.2338471],[121.1811814,14.2346011],[121.1803955,14.2352147],[121.1802185,14.2353109]]]}}],"metadata":{"source":"OpenStreetMap Overpass administrative relations","generatedAt":"2026-09-29T07:08:48.069Z","mergedWithRiskFallback":true}}